#cP2023  8  8  0  0  0.00000000      96 ORBIT IGS20 HLM  IGS
## 2274 172800.00000000   900.00000000 60164 0.0000000000000
+   31   G01G02G03G04G05G06G07G08G09G10G11G12G13G14G15G16G17
+        G18G19G20G21G23G24G25G26G27G28G29G30G31G32  0  0  0
+          0  0  0  0  0  0  0  0  0  0  0  0  0  0  0  0  0
+          0  0  0  0  0  0  0  0  0  0  0  0  0  0  0  0  0
+          0  0  0  0  0  0  0  0  0  0  0  0  0  0  0  0  0
++         2  2  2  3  2  2  2  2  2  2  2  2  2  2  2  2  2
++         2  2  2  2  2  2  2  1  2  2  2  2  2  2  0  0  0
++         0  0  0  0  0  0  0  0  0  0  0  0  0  0  0  0  0
++         0  0  0  0  0  0  0  0  0  0  0  0  0  0  0  0  0
++         0  0  0  0  0  0  0  0  0  0  0  0  0  0  0  0  0
%c G  cc GPS ccc cccc cccc cccc cccc ccccc ccccc ccccc ccccc
%c cc cc ccc ccc cccc cccc cccc cccc ccccc ccccc ccccc ccccc
%f  1.2500000  1.025000000  0.00000000000  0.000000000000000
%f  0.0000000  0.000000000  0.00000000000  0.000000000000000
%i    0    0    0    0      0      0      0      0         0
%i    0    0    0    0      0      0      0      0         0
/* RAPID ORBIT COMBINATION FROM WEIGHTED AVERAGE OF:        
/* cod emr esa gfz grg jgx jpl ngs sio usn whu              
/* REFERENCED TO IGS TIME (IGST) AND TO WEIGHTED MEAN POLE: 
/* PCV:IGS20      OL/AL:FES2014b NONE     Y  ORB:CMB CLK:CMB
*  2023  8  8 15  0  0.00000000
PG01  16354.820013  13908.594103 -16201.944165    169.386504  5  7  8 100       
PG02  10378.417753  14300.207668 -19377.348469   -567.657824  4  6  4 105       
PG03  12761.640696  22472.743080   6240.403592   -196.641804  5  4  5 101       
PG04   8634.159014  12853.359369  21577.440421    119.538781  5  6  7  74       
PG05  -3945.559101 -24661.140970   8699.642614   -138.022925  5  5  6  78       
PG06  20820.487581  -6462.673277  15298.007792    568.927867  6  6  4  74       
PG07  25932.521707   6463.443500   2763.586271    101.610617  7  6  4  76       
PG08   -709.194588  20294.206238 -16981.978286   -136.173952  4  4  7  91       
PG09  15966.952329   3514.551555  20860.563753    -91.832332  6  4  7  75       
PG10 -13873.387902   4923.577347 -21930.073610    -48.451569  3  5  4 110       
PG11   7238.627055 -13689.488500  21582.672826   -311.712583  5  6  6  74       
PG12  -9205.176752 -24780.677644   2683.195293   -410.482742  6  7  6  88       
PG13  10221.969043 -21016.432413 -12602.325275    557.561397  5  6  5  96       
PG14  15717.533284  -1404.186769 -21358.744577    147.764398  2  2  5 116       
PG15  -2778.196590 -20162.576693 -17410.788850     65.706832  4  2  7  95       
PG16  -2277.040791  23200.319507  11988.387819   -470.853007  6  6  6  95       
PG17  21082.689712 -11667.368808 -10857.184447    722.399830  6  6  6 110       
PG18 -26246.940202  -4622.763554   -483.950546   -375.285181  7  5  7  95       
PG19  20602.198868 -15952.715634  -4334.212005    354.909087  9  7  6 108       
PG20   2886.061086 -19932.578362  17442.610928    418.316375  6  5  4  83       
PG21   8173.075765  14781.245911 -20176.591721    151.043829  7  6  6 106       
PG23 -17034.508719  -8534.475044 -18571.874601     52.623116  5  7  4 108       
PG24 -12556.416951 -14826.392983 -18652.771862   -283.506800  4  7  7  99       
PG25 -16405.163883 -15891.064884  13462.345709    460.983866  6  6  4 115       
PG26  -8797.340425  15520.337252  19455.528616    233.706556     5  3 100       
PG27 -11221.625036  22500.811087  -8131.029759    -18.358172  9  6  6 104       
PG28 -22003.932018   6460.712443  13378.133716     77.854293  5  7  4  98       
PG29 -14992.049370  -5198.789461  21267.697727   -607.369856  6  6  6  70       
PG30  25688.813196   -773.984048  -7107.691975   -498.075713  6  6  4 101       
PG31 -13456.049938  11610.136383  19683.179266   -221.497978  6  8  4  65       
PG32 -19923.545446  15120.700133  -8454.090672   -536.836214  6  5  8  98       
*  2023  8  8 15 15  0.00000000
PG01  14481.230927  13701.516081 -18063.384407    169.385145  6  8  8 107       
PG02   8001.649459  14264.608595 -20458.060655   -567.654301  4  6  4 100       
PG03  12800.251458  23068.784594   3424.123569   -196.625819  5  5  4 108       
PG04   7034.139324  14687.457955  20968.740799    119.548967  5  6  7  80       
PG05  -3252.079616 -23695.207819  11253.387593   -138.023693  5  6  5  75       
PG06  22390.577482  -6105.005703  13062.940914    568.923576  5  5  4  95       
PG07  25487.410455   6643.453302   5518.819009    101.600984  6  6  4  77       
PG08  -1951.803959  21659.434986 -15046.733899   -136.175963  5  5  7  96       
PG09  14560.959471   5506.783278  21444.183189    -91.823634  6  5  7  73       
PG10 -14830.884719   2581.482732 -21732.809856    -48.452974  4  6  5 106       
PG11   9618.001319 -13187.754756  20952.396482   -311.727937  6  7  5  69       
PG12  -9031.499494 -25020.233686   -171.022548   -410.486787  6  7  6  66       
PG13  11281.785584 -21764.037179 -10134.329359    557.565592  6  6  5  70       
PG14  16515.301553    879.025555 -20792.412057    147.774998  2  2  5 115       
PG15  -1688.864523 -21644.824897 -15607.261491     65.710076  4     8  96       
PG16  -2960.159914  21774.621739  14280.641560   -470.848704  5  6  5  94       
PG17  20275.153510 -10465.605689 -13250.735399    722.400547  5  5  6 111       
PG18 -26108.818863  -4808.096505   2385.115746   -375.297426  6  5  7 101       
PG19  20330.979307 -15329.909796  -7131.825297    354.913851  9  6  6 100       
PG20   4106.490338 -18249.875236  18959.311170    418.314116  6  6  4  67       
PG21   5726.317810  14705.531569 -20957.519059    151.043412  7  7  6 103       
PG23 -17743.814362 -10429.565899 -16877.222348     52.627228  5  7  4  97       
PG24 -10420.817021 -14850.155644 -19894.113712   -283.517378  5  7  7  75       
PG25 -16766.750292 -17307.955801  11146.422200    460.985860  6  6  3 101       
PG26  -9941.949390  13495.365100  20416.735152    233.705295     5  2 104       
PG27 -11880.205229  22942.824273  -5381.487865    -18.364339  8  6  6  77       
PG28 -23374.084071   6110.069054  11013.790003     77.851566  5  7  3 102       
PG29 -13362.365433  -7054.293335  21802.408444   -607.370443  6  6  6  51       
PG30  26310.929271   -384.643560  -4422.320275   -498.072994  6  6  4  97       
PG31 -15611.696715  11152.699365  18360.142350   -221.498700  6  8  3  68       
PG32 -19427.979834  14061.090102 -11014.134683   -536.842403  7  1  9  96       
*  2023  8  8 15 30  0.00000000
PG01  12408.580390  13585.546828 -19625.657384    169.383772  6  8  8  96       
PG02   5519.113585  14353.516457 -21171.745639   -567.650423  4  6  4  85       
PG03  12733.401242  23370.323500    549.177286   -196.609860  6  5  4 107       
PG04   5584.822789  16531.816666  19998.810582    119.559105  6  6  7  90       
PG05  -2375.039889 -22520.202547  13610.635111   -138.025512  5  6  5  83       
PG06  23713.923100  -5859.418267  10604.863348    568.919194  5  5  4 101       
PG07  24753.044778   6819.513151   8182.753180    101.591001  6  6  4  81       
PG08  -2998.099336  22890.189867 -12849.179148   -136.176969  5  6  7  89       
PG09  13233.980353   7606.795744  21656.265555    -91.814892  6  6  7  74       
PG10 -15894.492655    338.207152 -21156.375081    -48.454599  4  6  5 103       
PG11  11929.934380 -12823.880322  19961.580491   -311.743357  6  7  5  86       
PG12  -8754.039084 -24967.889135  -3022.335921   -410.490926  6  7  6  78       
PG13  12107.149191 -22352.713261  -7491.271766    557.570183  5  7  4  86       
PG14  17391.988871   3040.852423 -19868.612528    147.785620  2  3  5 106       
PG15   -763.941808 -22986.993643 -13540.490810     65.713373  4  3  8  94       
PG16  -3803.243091  20152.404649  16317.103207   -470.844226  5  6  5 106       
PG17  19372.994602  -9012.604634 -15411.663050    722.400819  5  5  6 112       
PG18 -25660.719752  -4970.662863   5213.564200   -375.309649  6  6  7 109       
PG19  19890.402558 -14458.552708  -9805.078487    354.918291  9  6  6 105       
PG20   5499.643067 -16505.646410  20152.460119    418.312699  6  6  4  82       
PG21   3200.332712  14757.029572 -21364.268678    151.042978  6  7  5  95       
PG23 -18459.842414 -12097.301853 -14893.975351     52.631366  5  7  4 104       
PG24  -8167.823674 -14980.596544 -20806.771889   -283.527898  5  7  7 103       
PG25 -17079.836118 -18456.430493   8638.426431    460.987814  6  5  3  95       
PG26 -11222.668426  11451.515940  21020.870552    233.703999     5     99       
PG27 -12338.259254  23153.922665  -2537.563786    -18.370508  8  6  6 117       
PG28 -24482.216849   5843.201466   8459.707827     77.848915  5  7  4  89       
PG29 -11810.720331  -9027.238928  21960.553483   -607.371176  7  6  6  77       
PG30  26646.403800    -53.343632  -1661.861203   -498.070270  6  6  4  94       
PG31 -17617.065103  10824.450675  16720.983572   -221.499231  6  8  3  78       
PG32 -18831.003358  12743.192977 -13380.947663   -536.848563  8     9  87       
EOF
